[{"OBJECT_NAME":"STARLINK-34322","OBJECT_ID":"2025-142G","EPOCH":"2026-03-09T21:27:01.386720","MEAN_MOTION":14.98335941,"ECCENTRICITY":0.00026205,"INCLINATION":70.0016,"RA_OF_ASC_NODE":313.8164,"ARG_OF_PERICENTER":270.3197,"MEAN_ANOMALY":89.7661,"EPHEMERIS_TYPE":0,"CLASSIFICATION_TYPE":"U","NORAD_CAT_ID":64702,"ELEMENT_SET_NO":999,"REV_AT_EPOCH":3967,"BSTAR":0.00024374985,"MEAN_MOTION_DOT":2.817e-5,"MEAN_MOTION_DDOT":0},{"OBJECT_NAME":"SENTINEL-1B","OBJECT_ID":"2016-025A","EPOCH":"2026-03-09T22:22:55.750080","MEAN_MOTION":14.98768491,"ECCENTRICITY":0.00163778,"INCLINATION":98.1047,"RA_OF_ASC_NODE":125.8491,"ARG_OF_PERICENTER":100.1359,"MEAN_ANOMALY":260.1711,"EPHEMERIS_TYPE":0,"CLASSIFICATION_TYPE":"U","NORAD_CAT_ID":41456,"ELEMENT_SET_NO":999,"REV_AT_EPOCH":52891,"BSTAR":0.00015358389,"MEAN_MOTION_DOT":1.79e-5,"MEAN_MOTION_DDOT":0}]
